[{"OBJECT_NAME":"YINHE-1","OBJECT_ID":"2020-004A","EPOCH":"2026-03-09T22:55:05.644416","MEAN_MOTION":14.79015566,"ECCENTRICITY":0.00131658,"INCLINATION":86.3997,"RA_OF_ASC_NODE":160.1115,"ARG_OF_PERICENTER":358.9121,"MEAN_ANOMALY":1.2068,"EPHEMERIS_TYPE":0,"CLASSIFICATION_TYPE":"U","NORAD_CAT_ID":45024,"ELEMENT_SET_NO":999,"REV_AT_EPOCH":33125,"BSTAR":0.00018596346,"MEAN_MOTION_DOT":1.401e-5,"MEAN_MOTION_DDOT":0},{"OBJECT_NAME":"KUIPER-00041","OBJECT_ID":"2025-134C","EPOCH":"2026-03-09T21:31:37.136640","MEAN_MOTION":14.78744857,"ECCENTRICITY":0.00071235,"INCLINATION":51.899,"RA_OF_ASC_NODE":244.7703,"ARG_OF_PERICENTER":265.9804,"MEAN_ANOMALY":94.0344,"EPHEMERIS_TYPE":0,"CLASSIFICATION_TYPE":"U","NORAD_CAT_ID":64502,"ELEMENT_SET_NO":999,"REV_AT_EPOCH":3992,"BSTAR":0.00067292717,"MEAN_MOTION_DOT":4.772e-5,"MEAN_MOTION_DDOT":0}]
